<?xml version="1.0" encoding="UTF-8"?>
<TrainingCenterDatabase xmlns="http://www.garmin.com/xmlschemas/TrainingCenterDatabase/v2" xmlns:ns3="http://www.garmin.com/xmlschemas/ActivityExtension/v2">
  <Activities>
    <Activity Sport="Running">
      <Id>2024-05-03T07:00:00Z</Id>
      <Lap StartTime="2024-05-03T07:00:00Z">
        <TotalTimeSeconds>300.0</TotalTimeSeconds>
        <DistanceMeters>750.0</DistanceMeters>
        <MaximumSpeed>2.6</MaximumSpeed>
        <Calories>60</Calories>
        <AverageHeartRateBpm><Value>144</Value></AverageHeartRateBpm>
        <MaximumHeartRateBpm><Value>149</Value></MaximumHeartRateBpm>
        <Intensity>Active</Intensity>
        <TriggerMethod>Distance</TriggerMethod>
        <Track>
          <Trackpoint><Time>2024-05-03T07:00:00Z</Time><Position><LatitudeDegrees>43.360000</LatitudeDegrees><LongitudeDegrees>-8.410000</LongitudeDegrees></Position><AltitudeMeters>20</AltitudeMeters><DistanceMeters>0.0</DistanceMeters><HeartRateBpm><Value>140</Value></HeartRateBpm><Extensions><ns3:TPX><ns3:Speed>2.5</ns3:Speed><ns3:RunCadence>85</ns3:RunCadence></ns3:TPX></Extensions></Trackpoint>
          <Trackpoint><Time>2024-05-03T07:00:10Z</Time><Position><LatitudeDegrees>43.360225</LatitudeDegrees><LongitudeDegrees>-8.410000</LongitudeDegrees></Position><AltitudeMeters>21</AltitudeMeters><DistanceMeters>25.0</DistanceMeters><HeartRateBpm><Value>141</Value></HeartRateBpm><Extensions><ns3:TPX><ns3:Speed>2.5</ns3:Speed><ns3:RunCadence>85</ns3:RunCadence></ns3:TPX></Extensions></Trackpoint>
          <Trackpoint><Time>2024-05-03T07:00:20Z</Time><Position><LatitudeDegrees>43.360450</LatitudeDegrees><LongitudeDegrees>-8.410000</LongitudeDegrees></Position><AltitudeMeters>22</AltitudeMeters><DistanceMeters>50.0</DistanceMeters><HeartRateBpm><Value>142</Value></HeartRateBpm><Extensions><ns3:TPX><ns3:Speed>2.5</ns3:Speed><ns3:RunCadence>85</ns3:RunCadence></ns3:TPX></Extensions></Trackpoint>
          <Trackpoint><Time>2024-05-03T07:00:30Z</Time><Position><LatitudeDegrees>43.360675</LatitudeDegrees><LongitudeDegrees>-8.410000</LongitudeDegrees></Position><AltitudeMeters>23</AltitudeMeters><DistanceMeters>75.0</DistanceMeters><HeartRateBpm><Value>143</Value></HeartRateBpm><Extensions><ns3:TPX><ns3:Speed>2.5</ns3:Speed><ns3:RunCadence>85</ns3:RunCadence></ns3:TPX></Extensions></Trackpoint>
          <Trackpoint><Time>2024-05-03T07:00:40Z</Time><Position><LatitudeDegrees>43.360900</LatitudeDegrees><LongitudeDegrees>-8.410000</LongitudeDegrees></Position><AltitudeMeters>24</AltitudeMeters><DistanceMeters>100.0</DistanceMeters><HeartRateBpm><Value>144</Value></HeartRateBpm><Extensions><ns3:TPX><ns3:Speed>2.5</ns3:Speed><ns3:RunCadence>85</ns3:RunCadence></ns3:TPX></Extensions></Trackpoint>
          <Trackpoint><Time>2024-05-03T07:00:50Z</Time><Position><LatitudeDegrees>43.361125</LatitudeDegrees><LongitudeDegrees>-8.410000</LongitudeDegrees></Position><AltitudeMeters>25</AltitudeMeters><DistanceMeters>125.0</DistanceMeters><HeartRateBpm><Value>145</Value></HeartRateBpm><Extensions><ns3:TPX><ns3:Speed>2.5</ns3:Speed><ns3:RunCadence>85</ns3:RunCadence></ns3:TPX></Extensions></Trackpoint>
          <Trackpoint><Time>2024-05-03T07:01:00Z</Time><Position><LatitudeDegrees>43.361350</LatitudeDegrees><LongitudeDegrees>-8.410000</LongitudeDegrees></Position><AltitudeMeters>26</AltitudeMeters><DistanceMeters>150.0</DistanceMeters><HeartRateBpm><Value>146</Value></HeartRateBpm><Extensions><ns3:TPX><ns3:Speed>2.5</ns3:Speed><ns3:RunCadence>85</ns3:RunCadence></ns3:TPX></Extensions></Trackpoint>
          <Trackpoint><Time>2024-05-03T07:01:10Z</Time><Position><LatitudeDegrees>43.361575</LatitudeDegrees><LongitudeDegrees>-8.410000</LongitudeDegrees></Position><AltitudeMeters>27</AltitudeMeters><DistanceMeters>175.0</DistanceMeters><HeartRateBpm><Value>147</Value></HeartRateBpm><Extensions><ns3:TPX><ns3:Speed>2.5</ns3:Speed><ns3:RunCadence>85</ns3:RunCadence></ns3:TPX></Extensions></Trackpoint>
          <Trackpoint><Time>2024-05-03T07:01:20Z</Time><Position><LatitudeDegrees>43.361800</LatitudeDegrees><LongitudeDegrees>-8.410000</LongitudeDegrees></Position><AltitudeMeters>28</AltitudeMeters><DistanceMeters>200.0</DistanceMeters><HeartRateBpm><Value>148</Value></HeartRateBpm><Extensions><ns3:TPX><ns3:Speed>2.5</ns3:Speed><ns3:RunCadence>85</ns3:RunCadence></ns3:TPX></Extensions></Trackpoint>
          <Trackpoint><Time>2024-05-03T07:01:30Z</Time><Position><LatitudeDegrees>43.362025</LatitudeDegrees><LongitudeDegrees>-8.410000</LongitudeDegrees></Position><AltitudeMeters>29</AltitudeMeters><DistanceMeters>225.0</DistanceMeters><HeartRateBpm><Value>149</Value></HeartRateBpm><Extensions><ns3:TPX><ns3:Speed>2.5</ns3:Speed><ns3:RunCadence>85</ns3:RunCadence></ns3:TPX></Extensions></Trackpoint>
          <Trackpoint><Time>2024-05-03T07:01:40Z</Time><Position><LatitudeDegrees>43.362250</LatitudeDegrees><LongitudeDegrees>-8.410000</LongitudeDegrees></Position><AltitudeMeters>30</AltitudeMeters><DistanceMeters>250.0</DistanceMeters><HeartRateBpm><Value>140</Value></HeartRateBpm><Extensions><ns3:TPX><ns3:Speed>2.5</ns3:Speed><ns3:RunCadence>85</ns3:RunCadence></ns3:TPX></Extensions></Trackpoint>
          <Trackpoint><Time>2024-05-03T07:01:50Z</Time><Position><LatitudeDegrees>43.362475</LatitudeDegrees><LongitudeDegrees>-8.410000</LongitudeDegrees></Position><AltitudeMeters>31</AltitudeMeters><DistanceMeters>275.0</DistanceMeters><HeartRateBpm><Value>141</Value></HeartRateBpm><Extensions><ns3:TPX><ns3:Speed>2.5</ns3:Speed><ns3:RunCadence>85</ns3:RunCadence></ns3:TPX></Extensions></Trackpoint>
          <Trackpoint><Time>2024-05-03T07:02:00Z</Time><Position><LatitudeDegrees>43.362700</LatitudeDegrees><LongitudeDegrees>-8.410000</LongitudeDegrees></Position><AltitudeMeters>20</AltitudeMeters><DistanceMeters>300.0</DistanceMeters><HeartRateBpm><Value>142</Value></HeartRateBpm><Extensions><ns3:TPX><ns3:Speed>2.5</ns3:Speed><ns3:RunCadence>85</ns3:RunCadence></ns3:TPX></Extensions></Trackpoint>
          <Trackpoint><Time>2024-05-03T07:02:10Z</Time><Position><LatitudeDegrees>43.362925</LatitudeDegrees><LongitudeDegrees>-8.410000</LongitudeDegrees></Position><AltitudeMeters>21</AltitudeMeters><DistanceMeters>325.0</DistanceMeters><HeartRateBpm><Value>143</Value></HeartRateBpm><Extensions><ns3:TPX><ns3:Speed>2.5</ns3:Speed><ns3:RunCadence>85</ns3:RunCadence></ns3:TPX></Extensions></Trackpoint>
          <Trackpoint><Time>2024-05-03T07:02:20Z</Time><Position><LatitudeDegrees>43.363150</LatitudeDegrees><LongitudeDegrees>-8.410000</LongitudeDegrees></Position><AltitudeMeters>22</AltitudeMeters><DistanceMeters>350.0</DistanceMeters><HeartRateBpm><Value>144</Value></HeartRateBpm><Extensions><ns3:TPX><ns3:Speed>2.5</ns3:Speed><ns3:RunCadence>85</ns3:RunCadence></ns3:TPX></Extensions></Trackpoint>
          <Trackpoint><Time>2024-05-03T07:02:30Z</Time><Position><LatitudeDegrees>43.363375</LatitudeDegrees><LongitudeDegrees>-8.410000</LongitudeDegrees></Position><AltitudeMeters>23</AltitudeMeters><DistanceMeters>375.0</DistanceMeters><HeartRateBpm><Value>145</Value></HeartRateBpm><Extensions><ns3:TPX><ns3:Speed>2.5</ns3:Speed><ns3:RunCadence>85</ns3:RunCadence></ns3:TPX></Extensions></Trackpoint>
          <Trackpoint><Time>2024-05-03T07:02:40Z</Time><Position><LatitudeDegrees>43.363600</LatitudeDegrees><LongitudeDegrees>-8.410000</LongitudeDegrees></Position><AltitudeMeters>24</AltitudeMeters><DistanceMeters>400.0</DistanceMeters><HeartRateBpm><Value>146</Value></HeartRateBpm><Extensions><ns3:TPX><ns3:Speed>2.5</ns3:Speed><ns3:RunCadence>85</ns3:RunCadence></ns3:TPX></Extensions></Trackpoint>
          <Trackpoint><Time>2024-05-03T07:02:50Z</Time><Position><LatitudeDegrees>43.363825</LatitudeDegrees><LongitudeDegrees>-8.410000</LongitudeDegrees></Position><AltitudeMeters>25</AltitudeMeters><DistanceMeters>425.0</DistanceMeters><HeartRateBpm><Value>147</Value></HeartRateBpm><Extensions><ns3:TPX><ns3:Speed>2.5</ns3:Speed><ns3:RunCadence>85</ns3:RunCadence></ns3:TPX></Extensions></Trackpoint>
          <Trackpoint><Time>2024-05-03T07:03:00Z</Time><Position><LatitudeDegrees>43.364050</LatitudeDegrees><LongitudeDegrees>-8.410000</LongitudeDegrees></Position><AltitudeMeters>26</AltitudeMeters><DistanceMeters>450.0</DistanceMeters><HeartRateBpm><Value>148</Value></HeartRateBpm><Extensions><ns3:TPX><ns3:Speed>2.5</ns3:Speed><ns3:RunCadence>85</ns3:RunCadence></ns3:TPX></Extensions></Trackpoint>
          <Trackpoint><Time>2024-05-03T07:03:10Z</Time><Position><LatitudeDegrees>43.364275</LatitudeDegrees><LongitudeDegrees>-8.410000</LongitudeDegrees></Position><AltitudeMeters>27</AltitudeMeters><DistanceMeters>475.0</DistanceMeters><HeartRateBpm><Value>149</Value></HeartRateBpm><Extensions><ns3:TPX><ns3:Speed>2.5</ns3:Speed><ns3:RunCadence>85</ns3:RunCadence></ns3:TPX></Extensions></Trackpoint>
          <Trackpoint><Time>2024-05-03T07:03:20Z</Time><Position><LatitudeDegrees>43.364500</LatitudeDegrees><LongitudeDegrees>-8.410000</LongitudeDegrees></Position><AltitudeMeters>28</AltitudeMeters><DistanceMeters>500.0</DistanceMeters><HeartRateBpm><Value>140</Value></HeartRateBpm><Extensions><ns3:TPX><ns3:Speed>2.5</ns3:Speed><ns3:RunCadence>85</ns3:RunCadence></ns3:TPX></Extensions></Trackpoint>
          <Trackpoint><Time>2024-05-03T07:03:30Z</Time><Position><LatitudeDegrees>43.364725</LatitudeDegrees><LongitudeDegrees>-8.410000</LongitudeDegrees></Position><AltitudeMeters>29</AltitudeMeters><DistanceMeters>525.0</DistanceMeters><HeartRateBpm><Value>141</Value></HeartRateBpm><Extensions><ns3:TPX><ns3:Speed>2.5</ns3:Speed><ns3:RunCadence>85</ns3:RunCadence></ns3:TPX></Extensions></Trackpoint>
          <Trackpoint><Time>2024-05-03T07:03:40Z</Time><Position><LatitudeDegrees>43.364950</LatitudeDegrees><LongitudeDegrees>-8.410000</LongitudeDegrees></Position><AltitudeMeters>30</AltitudeMeters><DistanceMeters>550.0</DistanceMeters><HeartRateBpm><Value>142</Value></HeartRateBpm><Extensions><ns3:TPX><ns3:Speed>2.5</ns3:Speed><ns3:RunCadence>85</ns3:RunCadence></ns3:TPX></Extensions></Trackpoint>
          <Trackpoint><Time>2024-05-03T07:03:50Z</Time><Position><LatitudeDegrees>43.365175</LatitudeDegrees><LongitudeDegrees>-8.410000</LongitudeDegrees></Position><AltitudeMeters>31</AltitudeMeters><DistanceMeters>575.0</DistanceMeters><HeartRateBpm><Value>143</Value></HeartRateBpm><Extensions><ns3:TPX><ns3:Speed>2.5</ns3:Speed><ns3:RunCadence>85</ns3:RunCadence></ns3:TPX></Extensions></Trackpoint>
          <Trackpoint><Time>2024-05-03T07:04:00Z</Time><Position><LatitudeDegrees>43.365400</LatitudeDegrees><LongitudeDegrees>-8.410000</LongitudeDegrees></Position><AltitudeMeters>20</AltitudeMeters><DistanceMeters>600.0</DistanceMeters><HeartRateBpm><Value>144</Value></HeartRateBpm><Extensions><ns3:TPX><ns3:Speed>2.5</ns3:Speed><ns3:RunCadence>85</ns3:RunCadence></ns3:TPX></Extensions></Trackpoint>
          <Trackpoint><Time>2024-05-03T07:04:10Z</Time><Position><LatitudeDegrees>43.365625</LatitudeDegrees><LongitudeDegrees>-8.410000</LongitudeDegrees></Position><AltitudeMeters>21</AltitudeMeters><DistanceMeters>625.0</DistanceMeters><HeartRateBpm><Value>145</Value></HeartRateBpm><Extensions><ns3:TPX><ns3:Speed>2.5</ns3:Speed><ns3:RunCadence>85</ns3:RunCadence></ns3:TPX></Extensions></Trackpoint>
          <Trackpoint><Time>2024-05-03T07:04:20Z</Time><Position><LatitudeDegrees>43.365850</LatitudeDegrees><LongitudeDegrees>-8.410000</LongitudeDegrees></Position><AltitudeMeters>22</AltitudeMeters><DistanceMeters>650.0</DistanceMeters><HeartRateBpm><Value>146</Value></HeartRateBpm><Extensions><ns3:TPX><ns3:Speed>2.5</ns3:Speed><ns3:RunCadence>85</ns3:RunCadence></ns3:TPX></Extensions></Trackpoint>
          <Trackpoint><Time>2024-05-03T07:04:30Z</Time><Position><LatitudeDegrees>43.366075</LatitudeDegrees><LongitudeDegrees>-8.410000</LongitudeDegrees></Position><AltitudeMeters>23</AltitudeMeters><DistanceMeters>675.0</DistanceMeters><HeartRateBpm><Value>147</Value></HeartRateBpm><Extensions><ns3:TPX><ns3:Speed>2.5</ns3:Speed><ns3:RunCadence>85</ns3:RunCadence></ns3:TPX></Extensions></Trackpoint>
          <Trackpoint><Time>2024-05-03T07:04:40Z</Time><Position><LatitudeDegrees>43.366300</LatitudeDegrees><LongitudeDegrees>-8.410000</LongitudeDegrees></Position><AltitudeMeters>24</AltitudeMeters><DistanceMeters>700.0</DistanceMeters><HeartRateBpm><Value>148</Value></HeartRateBpm><Extensions><ns3:TPX><ns3:Speed>2.5</ns3:Speed><ns3:RunCadence>85</ns3:RunCadence></ns3:TPX></Extensions></Trackpoint>
          <Trackpoint><Time>2024-05-03T07:04:50Z</Time><Position><LatitudeDegrees>43.366525</LatitudeDegrees><LongitudeDegrees>-8.410000</LongitudeDegrees></Position><AltitudeMeters>25</AltitudeMeters><DistanceMeters>725.0</DistanceMeters><HeartRateBpm><Value>149</Value></HeartRateBpm><Extensions><ns3:TPX><ns3:Speed>2.5</ns3:Speed><ns3:RunCadence>85</ns3:RunCadence></ns3:TPX></Extensions></Trackpoint>
        </Track>
      </Lap>
      <Lap StartTime="2024-05-03T07:05:00Z">
        <TotalTimeSeconds>300.0</TotalTimeSeconds>
        <DistanceMeters>750.0</DistanceMeters>
        <MaximumSpeed>2.6</MaximumSpeed>
        <Calories>60</Calories>
        <AverageHeartRateBpm><Value>145</Value></AverageHeartRateBpm>
        <MaximumHeartRateBpm><Value>150</Value></MaximumHeartRateBpm>
        <Intensity>Active</Intensity>
        <TriggerMethod>Distance</TriggerMethod>
        <Track>
          <Trackpoint><Time>2024-05-03T07:05:00Z</Time><Position><LatitudeDegrees>43.366750</LatitudeDegrees><LongitudeDegrees>-8.410000</LongitudeDegrees></Position><AltitudeMeters>26</AltitudeMeters><DistanceMeters>750.0</DistanceMeters><HeartRateBpm><Value>140</Value></HeartRateBpm><Extensions><ns3:TPX><ns3:Speed>2.5</ns3:Speed><ns3:RunCadence>85</ns3:RunCadence></ns3:TPX></Extensions></Trackpoint>
          <Trackpoint><Time>2024-05-03T07:05:10Z</Time><Position><LatitudeDegrees>43.366975</LatitudeDegrees><LongitudeDegrees>-8.410000</LongitudeDegrees></Position><AltitudeMeters>27</AltitudeMeters><DistanceMeters>775.0</DistanceMeters><HeartRateBpm><Value>141</Value></HeartRateBpm><Extensions><ns3:TPX><ns3:Speed>2.5</ns3:Speed><ns3:RunCadence>85</ns3:RunCadence></ns3:TPX></Extensions></Trackpoint>
          <Trackpoint><Time>2024-05-03T07:05:20Z</Time><Position><LatitudeDegrees>43.367200</LatitudeDegrees><LongitudeDegrees>-8.410000</LongitudeDegrees></Position><AltitudeMeters>28</AltitudeMeters><DistanceMeters>800.0</DistanceMeters><HeartRateBpm><Value>142</Value></HeartRateBpm><Extensions><ns3:TPX><ns3:Speed>2.5</ns3:Speed><ns3:RunCadence>85</ns3:RunCadence></ns3:TPX></Extensions></Trackpoint>
          <Trackpoint><Time>2024-05-03T07:05:30Z</Time><Position><LatitudeDegrees>43.367425</LatitudeDegrees><LongitudeDegrees>-8.410000</LongitudeDegrees></Position><AltitudeMeters>29</AltitudeMeters><DistanceMeters>825.0</DistanceMeters><HeartRateBpm><Value>143</Value></HeartRateBpm><Extensions><ns3:TPX><ns3:Speed>2.5</ns3:Speed><ns3:RunCadence>85</ns3:RunCadence></ns3:TPX></Extensions></Trackpoint>
          <Trackpoint><Time>2024-05-03T07:05:40Z</Time><Position><LatitudeDegrees>43.367650</LatitudeDegrees><LongitudeDegrees>-8.410000</LongitudeDegrees></Position><AltitudeMeters>30</AltitudeMeters><DistanceMeters>850.0</DistanceMeters><HeartRateBpm><Value>144</Value></HeartRateBpm><Extensions><ns3:TPX><ns3:Speed>2.5</ns3:Speed><ns3:RunCadence>85</ns3:RunCadence></ns3:TPX></Extensions></Trackpoint>
          <Trackpoint><Time>2024-05-03T07:05:50Z</Time><Position><LatitudeDegrees>43.367875</LatitudeDegrees><LongitudeDegrees>-8.410000</LongitudeDegrees></Position><AltitudeMeters>31</AltitudeMeters><DistanceMeters>875.0</DistanceMeters><HeartRateBpm><Value>145</Value></HeartRateBpm><Extensions><ns3:TPX><ns3:Speed>2.5</ns3:Speed><ns3:RunCadence>85</ns3:RunCadence></ns3:TPX></Extensions></Trackpoint>
          <Trackpoint><Time>2024-05-03T07:06:00Z</Time><Position><LatitudeDegrees>43.368100</LatitudeDegrees><LongitudeDegrees>-8.410000</LongitudeDegrees></Position><AltitudeMeters>20</AltitudeMeters><DistanceMeters>900.0</DistanceMeters><HeartRateBpm><Value>146</Value></HeartRateBpm><Extensions><ns3:TPX><ns3:Speed>2.5</ns3:Speed><ns3:RunCadence>85</ns3:RunCadence></ns3:TPX></Extensions></Trackpoint>
          <Trackpoint><Time>2024-05-03T07:06:10Z</Time><Position><LatitudeDegrees>43.368325</LatitudeDegrees><LongitudeDegrees>-8.410000</LongitudeDegrees></Position><AltitudeMeters>21</AltitudeMeters><DistanceMeters>925.0</DistanceMeters><HeartRateBpm><Value>147</Value></HeartRateBpm><Extensions><ns3:TPX><ns3:Speed>2.5</ns3:Speed><ns3:RunCadence>85</ns3:RunCadence></ns3:TPX></Extensions></Trackpoint>
          <Trackpoint><Time>2024-05-03T07:06:20Z</Time><Position><LatitudeDegrees>43.368550</LatitudeDegrees><LongitudeDegrees>-8.410000</LongitudeDegrees></Position><AltitudeMeters>22</AltitudeMeters><DistanceMeters>950.0</DistanceMeters><HeartRateBpm><Value>148</Value></HeartRateBpm><Extensions><ns3:TPX><ns3:Speed>2.5</ns3:Speed><ns3:RunCadence>85</ns3:RunCadence></ns3:TPX></Extensions></Trackpoint>
          <Trackpoint><Time>2024-05-03T07:06:30Z</Time><Position><LatitudeDegrees>43.368775</LatitudeDegrees><LongitudeDegrees>-8.410000</LongitudeDegrees></Position><AltitudeMeters>23</AltitudeMeters><DistanceMeters>975.0</DistanceMeters><HeartRateBpm><Value>149</Value></HeartRateBpm><Extensions><ns3:TPX><ns3:Speed>2.5</ns3:Speed><ns3:RunCadence>85</ns3:RunCadence></ns3:TPX></Extensions></Trackpoint>
          <Trackpoint><Time>2024-05-03T07:06:40Z</Time><Position><LatitudeDegrees>43.369000</LatitudeDegrees><LongitudeDegrees>-8.410000</LongitudeDegrees></Position><AltitudeMeters>24</AltitudeMeters><DistanceMeters>1000.0</DistanceMeters><HeartRateBpm><Value>140</Value></HeartRateBpm><Extensions><ns3:TPX><ns3:Speed>2.5</ns3:Speed><ns3:RunCadence>85</ns3:RunCadence></ns3:TPX></Extensions></Trackpoint>
          <Trackpoint><Time>2024-05-03T07:06:50Z</Time><Position><LatitudeDegrees>43.369225</LatitudeDegrees><LongitudeDegrees>-8.410000</LongitudeDegrees></Position><AltitudeMeters>25</AltitudeMeters><DistanceMeters>1025.0</DistanceMeters><HeartRateBpm><Value>141</Value></HeartRateBpm><Extensions><ns3:TPX><ns3:Speed>2.5</ns3:Speed><ns3:RunCadence>85</ns3:RunCadence></ns3:TPX></Extensions></Trackpoint>
          <Trackpoint><Time>2024-05-03T07:07:00Z</Time><Position><LatitudeDegrees>43.369450</LatitudeDegrees><LongitudeDegrees>-8.410000</LongitudeDegrees></Position><AltitudeMeters>26</AltitudeMeters><DistanceMeters>1050.0</DistanceMeters><HeartRateBpm><Value>142</Value></HeartRateBpm><Extensions><ns3:TPX><ns3:Speed>2.5</ns3:Speed><ns3:RunCadence>85</ns3:RunCadence></ns3:TPX></Extensions></Trackpoint>
          <Trackpoint><Time>2024-05-03T07:07:10Z</Time><Position><LatitudeDegrees>43.369675</LatitudeDegrees><LongitudeDegrees>-8.410000</LongitudeDegrees></Position><AltitudeMeters>27</AltitudeMeters><DistanceMeters>1075.0</DistanceMeters><HeartRateBpm><Value>143</Value></HeartRateBpm><Extensions><ns3:TPX><ns3:Speed>2.5</ns3:Speed><ns3:RunCadence>85</ns3:RunCadence></ns3:TPX></Extensions></Trackpoint>
          <Trackpoint><Time>2024-05-03T07:07:20Z</Time><Position><LatitudeDegrees>43.369900</LatitudeDegrees><LongitudeDegrees>-8.410000</LongitudeDegrees></Position><AltitudeMeters>28</AltitudeMeters><DistanceMeters>1100.0</DistanceMeters><HeartRateBpm><Value>144</Value></HeartRateBpm><Extensions><ns3:TPX><ns3:Speed>2.5</ns3:Speed><ns3:RunCadence>85</ns3:RunCadence></ns3:TPX></Extensions></Trackpoint>
          <Trackpoint><Time>2024-05-03T07:07:30Z</Time><Position><LatitudeDegrees>43.370125</LatitudeDegrees><LongitudeDegrees>-8.410000</LongitudeDegrees></Position><AltitudeMeters>29</AltitudeMeters><DistanceMeters>1125.0</DistanceMeters><HeartRateBpm><Value>145</Value></HeartRateBpm><Extensions><ns3:TPX><ns3:Speed>2.5</ns3:Speed><ns3:RunCadence>85</ns3:RunCadence></ns3:TPX></Extensions></Trackpoint>
          <Trackpoint><Time>2024-05-03T07:07:40Z</Time><Position><LatitudeDegrees>43.370350</LatitudeDegrees><LongitudeDegrees>-8.410000</LongitudeDegrees></Position><AltitudeMeters>30</AltitudeMeters><DistanceMeters>1150.0</DistanceMeters><HeartRateBpm><Value>146</Value></HeartRateBpm><Extensions><ns3:TPX><ns3:Speed>2.5</ns3:Speed><ns3:RunCadence>85</ns3:RunCadence></ns3:TPX></Extensions></Trackpoint>
          <Trackpoint><Time>2024-05-03T07:07:50Z</Time><Position><LatitudeDegrees>43.370575</LatitudeDegrees><LongitudeDegrees>-8.410000</LongitudeDegrees></Position><AltitudeMeters>31</AltitudeMeters><DistanceMeters>1175.0</DistanceMeters><HeartRateBpm><Value>147</Value></HeartRateBpm><Extensions><ns3:TPX><ns3:Speed>2.5</ns3:Speed><ns3:RunCadence>85</ns3:RunCadence></ns3:TPX></Extensions></Trackpoint>
          <Trackpoint><Time>2024-05-03T07:08:00Z</Time><Position><LatitudeDegrees>43.370800</LatitudeDegrees><LongitudeDegrees>-8.410000</LongitudeDegrees></Position><AltitudeMeters>20</AltitudeMeters><DistanceMeters>1200.0</DistanceMeters><HeartRateBpm><Value>148</Value></HeartRateBpm><Extensions><ns3:TPX><ns3:Speed>2.5</ns3:Speed><ns3:RunCadence>85</ns3:RunCadence></ns3:TPX></Extensions></Trackpoint>
          <Trackpoint><Time>2024-05-03T07:08:10Z</Time><Position><LatitudeDegrees>43.371025</LatitudeDegrees><LongitudeDegrees>-8.410000</LongitudeDegrees></Position><AltitudeMeters>21</AltitudeMeters><DistanceMeters>1225.0</DistanceMeters><HeartRateBpm><Value>149</Value></HeartRateBpm><Extensions><ns3:TPX><ns3:Speed>2.5</ns3:Speed><ns3:RunCadence>85</ns3:RunCadence></ns3:TPX></Extensions></Trackpoint>
          <Trackpoint><Time>2024-05-03T07:08:20Z</Time><Position><LatitudeDegrees>43.371250</LatitudeDegrees><LongitudeDegrees>-8.410000</LongitudeDegrees></Position><AltitudeMeters>22</AltitudeMeters><DistanceMeters>1250.0</DistanceMeters><HeartRateBpm><Value>140</Value></HeartRateBpm><Extensions><ns3:TPX><ns3:Speed>2.5</ns3:Speed><ns3:RunCadence>85</ns3:RunCadence></ns3:TPX></Extensions></Trackpoint>
          <Trackpoint><Time>2024-05-03T07:08:30Z</Time><Position><LatitudeDegrees>43.371475</LatitudeDegrees><LongitudeDegrees>-8.410000</LongitudeDegrees></Position><AltitudeMeters>23</AltitudeMeters><DistanceMeters>1275.0</DistanceMeters><HeartRateBpm><Value>141</Value></HeartRateBpm><Extensions><ns3:TPX><ns3:Speed>2.5</ns3:Speed><ns3:RunCadence>85</ns3:RunCadence></ns3:TPX></Extensions></Trackpoint>
          <Trackpoint><Time>2024-05-03T07:08:40Z</Time><Position><LatitudeDegrees>43.371700</LatitudeDegrees><LongitudeDegrees>-8.410000</LongitudeDegrees></Position><AltitudeMeters>24</AltitudeMeters><DistanceMeters>1300.0</DistanceMeters><HeartRateBpm><Value>142</Value></HeartRateBpm><Extensions><ns3:TPX><ns3:Speed>2.5</ns3:Speed><ns3:RunCadence>85</ns3:RunCadence></ns3:TPX></Extensions></Trackpoint>
          <Trackpoint><Time>2024-05-03T07:08:50Z</Time><Position><LatitudeDegrees>43.371925</LatitudeDegrees><LongitudeDegrees>-8.410000</LongitudeDegrees></Position><AltitudeMeters>25</AltitudeMeters><DistanceMeters>1325.0</DistanceMeters><HeartRateBpm><Value>143</Value></HeartRateBpm><Extensions><ns3:TPX><ns3:Speed>2.5</ns3:Speed><ns3:RunCadence>85</ns3:RunCadence></ns3:TPX></Extensions></Trackpoint>
          <Trackpoint><Time>2024-05-03T07:09:00Z</Time><Position><LatitudeDegrees>43.372150</LatitudeDegrees><LongitudeDegrees>-8.410000</LongitudeDegrees></Position><AltitudeMeters>26</AltitudeMeters><DistanceMeters>1350.0</DistanceMeters><HeartRateBpm><Value>144</Value></HeartRateBpm><Extensions><ns3:TPX><ns3:Speed>2.5</ns3:Speed><ns3:RunCadence>85</ns3:RunCadence></ns3:TPX></Extensions></Trackpoint>
          <Trackpoint><Time>2024-05-03T07:09:10Z</Time><Position><LatitudeDegrees>43.372375</LatitudeDegrees><LongitudeDegrees>-8.410000</LongitudeDegrees></Position><AltitudeMeters>27</AltitudeMeters><DistanceMeters>1375.0</DistanceMeters><HeartRateBpm><Value>145</Value></HeartRateBpm><Extensions><ns3:TPX><ns3:Speed>2.5</ns3:Speed><ns3:RunCadence>85</ns3:RunCadence></ns3:TPX></Extensions></Trackpoint>
          <Trackpoint><Time>2024-05-03T07:09:20Z</Time><Position><LatitudeDegrees>43.372600</LatitudeDegrees><LongitudeDegrees>-8.410000</LongitudeDegrees></Position><AltitudeMeters>28</AltitudeMeters><DistanceMeters>1400.0</DistanceMeters><HeartRateBpm><Value>146</Value></HeartRateBpm><Extensions><ns3:TPX><ns3:Speed>2.5</ns3:Speed><ns3:RunCadence>85</ns3:RunCadence></ns3:TPX></Extensions></Trackpoint>
          <Trackpoint><Time>2024-05-03T07:09:30Z</Time><Position><LatitudeDegrees>43.372825</LatitudeDegrees><LongitudeDegrees>-8.410000</LongitudeDegrees></Position><AltitudeMeters>29</AltitudeMeters><DistanceMeters>1425.0</DistanceMeters><HeartRateBpm><Value>147</Value></HeartRateBpm><Extensions><ns3:TPX><ns3:Speed>2.5</ns3:Speed><ns3:RunCadence>85</ns3:RunCadence></ns3:TPX></Extensions></Trackpoint>
          <Trackpoint><Time>2024-05-03T07:09:40Z</Time><Position><LatitudeDegrees>43.373050</LatitudeDegrees><LongitudeDegrees>-8.410000</LongitudeDegrees></Position><AltitudeMeters>30</AltitudeMeters><DistanceMeters>1450.0</DistanceMeters><HeartRateBpm><Value>148</Value></HeartRateBpm><Extensions><ns3:TPX><ns3:Speed>2.5</ns3:Speed><ns3:RunCadence>85</ns3:RunCadence></ns3:TPX></Extensions></Trackpoint>
          <Trackpoint><Time>2024-05-03T07:09:50Z</Time><Position><LatitudeDegrees>43.373275</LatitudeDegrees><LongitudeDegrees>-8.410000</LongitudeDegrees></Position><AltitudeMeters>31</AltitudeMeters><DistanceMeters>1475.0</DistanceMeters><HeartRateBpm><Value>149</Value></HeartRateBpm><Extensions><ns3:TPX><ns3:Speed>2.5</ns3:Speed><ns3:RunCadence>85</ns3:RunCadence></ns3:TPX></Extensions></Trackpoint>
          <Trackpoint><Time>2024-05-03T07:10:00Z</Time><Position><LatitudeDegrees>43.373500</LatitudeDegrees><LongitudeDegrees>-8.410000</LongitudeDegrees></Position><AltitudeMeters>20</AltitudeMeters><DistanceMeters>1500.0</DistanceMeters><HeartRateBpm><Value>140</Value></HeartRateBpm><Extensions><ns3:TPX><ns3:Speed>2.5</ns3:Speed><ns3:RunCadence>85</ns3:RunCadence></ns3:TPX></Extensions></Trackpoint>
        </Track>
      </Lap>
      <Notes>Synthetic run</Notes>
      <Creator><Name>openathlete-e2e</Name></Creator>
    </Activity>
  </Activities>
</TrainingCenterDatabase>
